GSAT-15                 
1 41028U 15065A   26169.70363362 -.00000264  00000+0  00000+0 0  9997
2 41028   0.0658 264.6790 0004330 165.1974 183.8794  1.00272991 38814
BADR-7 (ARABSAT-6B)     
1 41029U 15065B   26169.61489580  .00000138  00000+0  00000+0 0  9998
2 41029   0.0466 234.7700 0003657 328.1219 311.3234  1.00268150 38780
LAOSAT 1                
1 41034U 15067A   26169.68898809 -.00000349  00000+0  00000+0 0  9996
2 41034   0.0432 149.2228 0002160 249.5393 244.6915  1.00268811 38879
TELSTAR 12V             
1 41036U 15068A   26169.60666242 -.00000125  00000+0  00000+0 0  9997
2 41036   0.0181  15.1923 0002191  64.4019  30.6496  1.00271045 38643
ELEKTRO-L 2             
1 41105U 15074A   26169.03651196 -.00000126  00000+0  00000+0 0  9991
2 41105   6.6975  70.5132 0000902 256.1704 298.2263  1.00270556 38515
COSMOS 2513             
1 41121U 15075A   26169.73810179 -.00000144  00000+0  00000+0 0  9995
2 41121   0.0784 101.0658 0003111 331.7646 180.0940  1.00271527 38566
EXPRESS-AMU1            
1 41191U 15082A   26169.61688912  .00000149  00000+0  00000+0 0  9999
2 41191   0.0178 328.7180 0002807 126.4192  69.9184  1.00274099 38285
GAOFEN-4                
1 41194U 15083A   26169.63062473 -.00000341  00000+0  00000+0 0  9998
2 41194   0.3622  83.8351 0004364 113.5197  42.2100  1.00268207 38541
BELINTERSAT-1           
1 41238U 16001A   26169.54860667  .00000101  00000+0  00000+0 0  9992
2 41238   0.0313 254.4433 0002336 151.5712 109.7381  1.00273297 38256
IRNSS-1E                
1 41241U 16003A   26169.67979669 -.00000318  00000+0  00000+0 0  9996
2 41241  33.2374  59.7289 0018966 179.1127  24.5588  1.00277367 38099
EUTELSAT 9B             
1 41310U 16005A   26169.54011330  .00000055  00000+0  00000+0 0  9990
2 41310   0.0845  76.0787 0001665 331.8937  62.2147  1.00271996 38137
SES-9                   
1 41380U 16013A   26169.61894983 -.00000351  00000+0  00000+0 0  9997
2 41380   0.0108 339.1503 0002065 113.5785 145.2399  1.00265753 37455
EUTELSAT 65 WEST A      
1 41382U 16014A   26169.59678237 -.00000283  00000+0  00000+0 0  9993
2 41382   0.0520 334.0815 0002291 107.8738 334.4929  1.00273164 37535
IRNSS-1F                
1 41384U 16015A   26169.54470663  .00000150  00000+0  00000+0 0  9996
2 41384   5.3523  96.7502 0017448 185.0880 213.4858  1.00268069 37680
BEIDOU-2 IGSO-6         
1 41434U 16021A   26167.12386227 -.00000150  00000+0  00000+0 0  9994
2 41434  60.2243  38.0497 0057184 231.4868 132.3999  1.00259474 37472
IRNSS-1G                
1 41469U 16027A   26169.68898809 -.00000343  00000+0  00000+0 0  9999
2 41469   5.2016  97.4387 0007549 355.5290 191.4476  1.00265368 37195
JCSAT-2B                
1 41471U 16028A   26169.62753024 -.00000172  00000+0  00000+0 0  9996
2 41471   0.0183   4.0294 0000840  79.8703 202.8702  1.00270104 37147
THAICOM 8               
1 41552U 16031A   26169.62525138 -.00000127  00000+0  00000+0 0  9993
2 41552   0.0574  34.3261 0003560  26.0802 150.0214  1.00269275 36730
INTELSAT 31 (IS-31)     
1 41581U 16035A   26169.51957318 -.00000157  00000+0  00000+0 0  9999
2 41581   0.0156 292.5842 0000915 320.2559 105.9081  1.00273052 36694
BEIDOU-2 G7             
1 41586U 16037A   26169.68285476 -.00000360  00000+0  00000+0 0  9999
2 41586   1.7244  69.3324 0006417 358.2411 195.6507  1.00275756  6904
ABS-2A (MONGOLSAT-1)    
1 41588U 16038A   26169.62455803 -.00000090  00000+0  00000+0 0  9999
2 41588   0.0191   7.5817 0001315  19.5828 179.2813  1.00268523 36726
EUTELSAT 117 WEST B     
1 41589U 16038B   26169.65784434 -.00000018  00000+0  00000+0 0  9998
2 41589   0.0433 171.7769 0000599 298.2032 276.7502  1.00271706 36671
BRISAT                  
1 41591U 16039A   26169.62753024  .00000000  00000+0  00000+0 0  9990
2 41591   0.0220 335.4597 0001933 106.9867 200.8216  1.00269327 36621
ECHOSTAR 18             
1 41592U 16039B   26169.45498597 -.00000288  00000+0  00000+0 0  9992
2 41592   0.0179  10.2840 0001347  74.1385 284.6833  1.00269578 36638
MUOS-5                  
1 41622U 16041A   26169.66001102 -.00000147  00000+0  00000+0 0  9998
2 41622   2.1996 301.7054 0197519 260.7951 196.7794  1.00272825 37107
TIANTONG-1 1            
1 41725U 16048A   26169.74429566 -.00000325  00000+0  00000+0 0  9994
2 41725   3.8530  43.4382 0005533  43.8378 189.0515  1.00273973 36283
JCSAT-16                
1 41729U 16050A   26169.63336630 -.00000257  00000+0  00000+0 0  9992
2 41729   0.0184   2.5365 0000890  92.1351 184.1521  1.00270892 36085
USA 270                 
1 41744U 16052A   26167.59331618 -.00000127  00000+0  00000+0 0  9991
2 41744   4.1965  77.2060 0000730 182.0156  35.6177  0.99499640 28124
USA 271                 
1 41745U 16052B   26167.77926130 -.00000332  00000+0  00000+0 0  9999
2 41745   4.1686  77.2569 0002276 292.3319 292.8146  0.99837813 27919
INTELSAT 36 (IS-36)     
1 41747U 16053A   26169.55181333 -.00000031  00000+0  00000+0 0  9994
2 41747   0.0144  19.7909 0002081 313.7201 200.4230  1.00271248 35977
INSAT-3DR               
1 41752U 16054A   26169.62438470 -.00000083  00000+0  00000+0 0  9993
2 41752   0.1104  86.2264 0010530 187.5669 291.8132  1.00271058 35835
GSAT-18                 
1 41793U 16060A   26169.62438470 -.00000083  00000+0  00000+0 0  9995
2 41793   0.0636  96.2254 0005511 337.3864 132.0009  1.00271099 35546
