OBJECT_NAME,OBJECT_ID,EPOCH,MEAN_MOTION,ECCENTRICITY,INCLINATION,RA_OF_ASC_NODE,ARG_OF_PERICENTER,MEAN_ANOMALY,EPHEMERIS_TYPE,CLASSIFICATION_TYPE,NORAD_CAT_ID,ELEMENT_SET_NO,REV_AT_EPOCH,BSTAR,MEAN_MOTION_DOT,MEAN_MOTION_DDOT
GSAT-15,2015-065A,2026-06-18T16:53:13.944768,1.00272991,.000433,0.0658,264.6790,165.1974,183.8794,0,U,41028,999,3881,0,-.264E-5,0
BADR-7 (ARABSAT-6B),2015-065B,2026-06-18T14:45:26.997120,1.00268150,.0003657,0.0466,234.7700,328.1219,311.3234,0,U,41029,999,3878,0,.138E-5,0
LAOSAT 1,2015-067A,2026-06-18T16:32:08.570976,1.00268811,.000216,0.0432,149.2228,249.5393,244.6915,0,U,41034,999,3887,0,-.349E-5,0
TELSTAR 12V,2015-068A,2026-06-18T14:33:35.633088,1.00271045,.0002191,0.0181,15.1923,64.4019,30.6496,0,U,41036,999,3864,0,-.125E-5,0
ELEKTRO-L 2,2015-074A,2026-06-18T00:52:34.633344,1.00270556,.00009025,6.6975,70.5132,256.1704,298.2263,0,U,41105,999,3851,0,-.126E-5,0
COSMOS 2513,2015-075A,2026-06-18T17:42:51.994656,1.00271527,.0003111,0.0784,101.0658,331.7646,180.0940,0,U,41121,999,3856,0,-.144E-5,0
EXPRESS-AMU1,2015-082A,2026-06-18T14:48:19.219968,1.00274099,.0002807,0.0178,328.7180,126.4192,69.9184,0,U,41191,999,3828,0,.149E-5,0
GAOFEN-4,2015-083A,2026-06-18T15:08:05.976672,1.00268207,.0004364,0.3622,83.8351,113.5197,42.2100,0,U,41194,999,3854,0,-.341E-5,0
BELINTERSAT-1,2016-001A,2026-06-18T13:09:59.616288,1.00273297,.0002336,0.0313,254.4433,151.5712,109.7381,0,U,41238,999,3825,0,.101E-5,0
IRNSS-1E,2016-003A,2026-06-18T16:18:54.434016,1.00277367,.0018966,33.2374,59.7289,179.1127,24.5588,0,U,41241,999,3809,0,-.318E-5,0
EUTELSAT 9B,2016-005A,2026-06-18T12:57:45.789120,1.00271996,.0001665,0.0845,76.0787,331.8937,62.2147,0,U,41310,999,3813,0,.55E-6,0
SES-9,2016-013A,2026-06-18T14:51:17.265312,1.00265753,.0002065,0.0108,339.1503,113.5785,145.2399,0,U,41380,999,3745,0,-.351E-5,0
EUTELSAT 65 WEST A,2016-014A,2026-06-18T14:19:21.996768,1.00273164,.0002291,0.0520,334.0815,107.8738,334.4929,0,U,41382,999,3753,0,-.283E-5,0
IRNSS-1F,2016-015A,2026-06-18T13:04:22.652832,1.00268069,.0017448,5.3523,96.7502,185.0880,213.4858,0,U,41384,999,3768,0,.15E-5,0
BEIDOU-2 IGSO-6,2016-021A,2026-06-16T02:58:21.700128,1.00259474,.00571844,60.2243,38.0497,231.4868,132.3999,0,U,41434,999,3747,0,-.15E-5,0
IRNSS-1G,2016-027A,2026-06-18T16:32:08.570976,1.00265368,.0007549,5.2016,97.4387,355.5290,191.4476,0,U,41469,999,3719,0,-.343E-5,0
JCSAT-2B,2016-028A,2026-06-18T15:03:38.612736,1.00270104,.000084,0.0183,4.0294,79.8703,202.8702,0,U,41471,999,3714,0,-.172E-5,0
THAICOM 8,2016-031A,2026-06-18T15:00:21.719232,1.00269275,.000356,0.0574,34.3261,26.0802,150.0214,0,U,41552,999,3673,0,-.127E-5,0
INTELSAT 31 (IS-31),2016-035A,2026-06-18T12:28:11.122752,1.00273052,.0000915,0.0156,292.5842,320.2559,105.9081,0,U,41581,999,3669,0,-.157E-5,0
BEIDOU-2 G7,2016-037A,2026-06-18T16:23:18.651264,1.00275756,.0006417,1.7244,69.3324,358.2411,195.6507,0,U,41586,999,690,0,-.36E-5,0
ABS-2A (MONGOLSAT-1),2016-038A,2026-06-18T14:59:21.813792,1.00268523,.0001315,0.0191,7.5817,19.5828,179.2813,0,U,41588,999,3672,0,-.9E-6,0
EUTELSAT 117 WEST B,2016-038B,2026-06-18T15:47:17.750976,1.00271706,.0000599,0.0433,171.7769,298.2032,276.7502,0,U,41589,999,3667,0,-.18E-6,0
BRISAT,2016-039A,2026-06-18T15:03:38.612736,1.00269327,.0001933,0.0220,335.4597,106.9867,200.8216,0,U,41591,999,3662,0,0,0
ECHOSTAR 18,2016-039B,2026-06-18T10:55:10.787808,1.00269578,.0001347,0.0179,10.2840,74.1385,284.6833,0,U,41592,999,3663,0,-.288E-5,0
MUOS-5,2016-041A,2026-06-18T15:50:24.952128,1.00272825,.0197519,2.1996,301.7054,260.7951,196.7794,0,U,41622,999,3710,0,-.147E-5,0
TIANTONG-1 1,2016-048A,2026-06-18T17:51:47.145024,1.00273973,.0005533,3.8530,43.4382,43.8378,189.0515,0,U,41725,999,3628,0,-.325E-5,0
JCSAT-16,2016-050A,2026-06-18T15:12:02.848320,1.00270892,.000089,0.0184,2.5365,92.1351,184.1521,0,U,41729,999,3608,0,-.257E-5,0
USA 270,2016-052A,2026-06-16T14:14:22.517952,0.99499640,.000073,4.1965,77.2060,182.0156,35.6177,0,U,41744,999,2812,0,-.127E-5,0
USA 271,2016-052B,2026-06-16T18:42:08.176320,0.99837813,.0002276,4.1686,77.2569,292.3319,292.8146,0,U,41745,999,2791,0,-.332E-5,0
INTELSAT 36 (IS-36),2016-053A,2026-06-18T13:14:36.671712,1.00271248,.0002081,0.0144,19.7909,313.7201,200.4230,0,U,41747,999,3597,0,-.31E-6,0
INSAT-3DR,2016-054A,2026-06-18T14:59:06.838080,1.00271058,.001053,0.1104,86.2264,187.5669,291.8132,0,U,41752,999,3583,0,-.83E-6,0
GSAT-18,2016-060A,2026-06-18T14:59:06.838080,1.00271099,.0005511,0.0636,96.2254,337.3864,132.0009,0,U,41793,999,3554,0,-.83E-6,0
